IRIDIUM 36 [-]          
1 24967U 97056C   24008.58513867  .00000494  00000+0  16164-3 0  9999
2 24967  86.3955  33.6809 0002051  91.4447 268.6985 14.36573301376735
IRIDIUM 39 [-]          
1 25042U 97069D   24008.73216337  .00000744  00000+0  19649-3 0  9996
2 25042  86.3902  76.2176 0016275 257.8907 102.0473 14.47608892372908
IRIDIUM 38 [-]          
1 25043U 97069E   24008.78255602  .00000492  00000+0  15932-3 0  9991
2 25043  86.3956  94.0745 0003652  68.5636 291.5951 14.37043060370473
IRIDIUM 42 [-]          
1 25077U 97077A   24008.78524701  .00000520  00000+0  17473-3 0  9990
2 25077  86.3965  99.6043 0002492  81.7578 278.3901 14.35339805365807
IRIDIUM 44 [-]          
1 25078U 97077B   24008.75455423  .00000511  00000+0  15895-3 0  9998
2 25078  86.3945  82.9449 0001450  33.0322 327.0967 14.39151442368104
IRIDIUM 45 [-]          
1 25104U 97082A   24008.84515036  .00008891  00000+0  54398-3 0  9991
2 25104  86.3760 297.2351 0176337 100.4212 261.6945 14.97897539372816
IRIDIUM 24 [-]          
1 25105U 97082B   24008.90130010  .00000615  00000+0  18555-3 0  9995
2 25105  86.3920 302.7484 0012302  22.4607 337.7129 14.40919948367546
IRIDIUM 51 [-]          
1 25262U 98018A   24008.88528192  .00016259  00000+0  84978-3 0  9991
2 25262  86.3902 307.5059 0161854  52.3479 309.2314 15.05024077367257
